MALLIGYONG-1            
1 58400U 23179A   24247.76369001  .00012701  00000+0  55102-3 0  9996
2 58400  97.3909 133.2902 0000432 105.8263 254.3021 15.22476880 43670
